{
  "type": "FeatureCollection",
  "schema_version": "1.0.0",
  "product": "LPZ_F4_FIELD_MOTION_RESEARCH",
  "status": "NOT_PUBLISHED",
  "model_id": "LUCAS_KANADE_SEMILAGRANGIAN",
  "terminal_decision": "PENDING",
  "f4_closed": false,
  "source_case_id": "",
  "source_slot_utc": null,
  "source_as_of_utc": null,
  "coverage": "SELECTED_FIXED_MOSAIC_NOT_NATIONWIDE",
  "display_scope": "LATEST_FROZEN_PROSPECTIVE_CASE",
  "research_only": true,
  "validated_forecast": false,
  "production_integration_enabled": false,
  "risk_engine_allowed": false,
  "official_risk_output": false,
  "lpz_forecast_generated": false,
  "probability_generated": false,
  "severity_generated": false,
  "age_minutes_at_publish": null,
  "max_age_minutes": 90,
  "feature_count": 0,
  "projected_component_count": 0,
  "horizons_from_as_of_minutes": [],
  "features": [],
  "interpretation": "Display-only Lucas-Kanade/semi-Lagrangian F4 research forecast placeholder. Research geometry is not published yet. This is not an LPZ probability, severity, warning, or production risk output."
}
